#aV2022 12 27  0  0  0.00000000     288 DD+AD WGS84 FIT  NGA
## 2242 172800.00000000   300.00000000 59940 0.0000000000000
+   31     1  2  3  4  5  6  7  8  9 10 11 12 13 14 15 16 17
+         18 19 20 21 22 23 24 25 26 27 29 30 31 32  0  0  0
+          0  0  0  0  0  0  0  0  0  0  0  0  0  0  0  0  0
+          0  0  0  0  0  0  0  0  0  0  0  0  0  0  0  0  0
+          0  0  0  0  0  0  0  0  0  0  0  0  0  0  0  0  0
++         2  2  2  2  2  2  2  2  2  2  2  2  2  2  2  2  2
++         2  2  2  2  2  2  2  2  2  2  2  2  2  2  0  0  0
++         0  0  0  0  0  0  0  0  0  0  0  0  0  0  0  0  0
++         0  0  0  0  0  0  0  0  0  0  0  0  0  0  0  0  0
++         0  0  0  0  0  0  0  0  0  0  0  0  0  0  0  0  0
%c cc cc ccc ccc cccc cccc cccc cccc ccccc ccccc ccccc ccccc
%c cc cc ccc ccc cccc cccc cccc cccc ccccc ccccc ccccc ccccc
%f  0.0000000  0.000000000  0.00000000000  0.000000000000000
%f  0.0000000  0.000000000  0.00000000000  0.000000000000000
%i    0    0    0    0      0      0      0      0         0
%i    0    0    0    0      0      0      0      0         0
/*      NGA, ST. LOUIS,MO.                                  
/*   EPHEMERIS COMPUTED FROM 2 DAYS OF DATA                 
/*   EPOCHA v8 SMOOTHER                                     
/*   G2139 IERS2010 SATIGS SATAPC                           
*  2022 12 27  7 35  0.00000000
P  1   6244.850391  13818.709424 -22153.028182    232.234428                    
V  1 -26961.557089   4019.042375  -4832.063221     -0.050041                    
P  2  -9625.431125 -13027.833755  21648.295226   -630.803464                    
V  2  25147.685821  -6787.536144   7524.261928      0.021121                    
P  3  11158.654693  22705.152083  -8391.603283   -374.695705                    
V  3  -8148.535612  -6827.195718 -29634.107796      0.010123                    
P  4   2091.950586  21827.749847  14914.521312    -60.706772                    
V  4  -9290.554992  16674.742160 -23210.884172      0.073638                    
P  5    685.661571 -18689.751763  18640.978486   -109.650531                    
V  5  17114.455319  16978.189644  16358.036005     -0.014562                    
P  6  25776.586033  -5922.388883   2959.028884    548.022449                    
V  6   3890.778172   1275.872856 -32007.951908      0.070188                    
P  7  20515.178493   8056.174180  15588.583636    268.359262                    
V  7 -18365.659717   4687.551256  21878.154949     -0.057404                    
P  8  -5465.423015  25358.938281  -4696.880269   -100.652717                    
V  8  -4880.016939   4611.041625  31251.143013     -0.018647                    
P  9  10979.768065  12542.623940  20588.824629   -246.742464                    
V  9  -9758.165622  24497.346706  -9728.357852      0.063109                    
P 10 -19601.138338  -5927.274500 -16921.648217    -17.852935                    
V 10 -12666.965612 -17602.466630  20328.593312     -0.015827                    
P 11  18820.432018 -12036.814985  14347.625942    -65.346610                    
V 11  18325.347314    101.137376 -24002.860742     -0.079677                    
P 12  -8553.702732 -23478.132222  -9430.696564   -320.828376                    
V 12   8457.462105   8167.796060 -28744.228806     -0.045303                    
P 13  13177.343361 -22920.060239    811.625469    449.035690                    
V 13   1787.195724   2400.476869  32043.602313      0.065216                    
P 14  20062.723631   8247.514034 -15400.548832    -60.961298                    
V 14  10110.899084  16863.691965  22074.841722      0.068861                    
P 15   1964.382819 -25884.751229  -5312.798024     -0.588531                    
V 15   5124.104424  -5249.971633  30288.731039      0.032544                    
P 16  -6181.854105  15657.290861  20134.320794   -525.377144                    
V 16 -15775.836115 -21115.224092  11867.931837      0.008059                    
P 17  16055.004306  -1550.332291 -20681.255432    688.991038                    
V 17 -10558.265477  25090.872471  -9784.484501      0.028002                    
P 18 -22248.744076  -6019.835693  13328.020015    -75.017526                    
V 18  16417.164456  -4178.801474  25382.999129     -0.148550                    
P 19  17905.770523 -12297.727051 -15328.479136    256.004803                    
V 19  -7067.390408  17867.751190 -23191.267018      0.050824                    
P 20  11163.086728 -10842.968104  21541.606980    460.931305                    
V 20  20329.332707  18305.441696  -1541.235238     -0.024184                    
P 21  -2737.551221  15531.588765 -20636.467512    152.949373                    
V 21 -27225.565898   5559.431473   8344.682350      0.000426                    
P 22 -17053.793277  15776.269458 -12285.331042    393.224353                    
V 22   4773.194817 -15835.135034 -26234.882823      0.079018                    
P 23 -20369.955105 -15094.615514  -8158.885688      0.912246                    
V 23  -5083.643366  -9225.756171  29624.241209      0.008612                    
P 24  -2347.040620 -15832.848618 -21521.849119     -2.905555                    
V 24  25962.940239  -6052.329334   2071.018711     -0.171144                    
P 25 -16573.192670 -20943.736973   -893.793519    405.831862                    
V 25   2615.928725  -1178.976121 -31409.934941      0.034760                    
P 26 -15391.601311   5909.138013  20771.771157    239.243622                    
V 26 -17590.631950 -20036.507882  -6960.059634      0.007463                    
P 27 -12714.345533  22249.621084   5879.775111    142.498953                    
V 27    131.721291  -8325.416464  31029.167443     -0.098112                    
P 29  -7808.441166 -15310.169467  20183.951182   -576.704290                    
V 29  11791.790327 -22853.767832 -12821.625215     -0.024377                    
P 30  26265.587584   -273.205092   4870.465928   -534.628975                    
V 30  -5499.437421   4157.091728  30199.508405      0.007841                    
P 31 -25619.557863   6552.873442   4234.395179   -204.508314                    
V 31  -5818.626379  -1829.590302 -30708.721521     -0.011490                    
P 32 -16699.379061   5051.661399 -19811.770375   -343.765000                    
V 32   7685.461228 -24416.627343 -12802.874535     -0.128861                    
EOF
